     2.10           N:  GPS NAV DATA                        RINEX VERSION / TYPE
JPS2RIN V1.2.25     JAVAD GNSS          04-Jun-2018 18:59   PGM / RUN BY / DATE 
     .6519E-08   .2235E-07  -.5960E-07  -.1192E-06          ION ALPHA
     .8602E+05   .9830E+05  -.6554E+05  -.5243E+06          ION BETA
     .000000000000E+00  .266453525910E-14   319488      980 DELTA-UTC: A0,A1,T,W
    18                                                      LEAP SECONDS
                                                            END OF HEADER       
17 18  6  4 12  0  0.0 -.915033742785E-04  .375166564481E-11  .000000000000E+00
     .920000000000E+02  .606250000000E+01  .420374653149E-08 -.109407319933E+01
     .422820448875E-06  .123475103173E-01  .390037894249E-05  .515356637573E+04
     .129600000000E+06 -.104308128357E-06  .240853412077E+01  .286847352982E-06
     .982794899044E+00  .317718750000E+03 -.177782869526E+01 -.821891377932E-08
    -.589310261424E-10  .100000000000E+01  .200400000000E+04  .000000000000E+00
     .300000000000E+01  .000000000000E+00 -.111758708954E-07  .920000000000E+02
     .129600000000E+06
18 18  6  4 20  0  0.0  .176308676600E-04  .466116034659E-11  .000000000000E+00
     .560000000000E+02 -.674687500000E+02  .499842249007E-08  .761528516148E+00
    -.349059700966E-05  .145911239088E-01  .590085983276E-05  .515365303993E+04
     .158400000000E+06 -.173225998878E-06 -.292025887113E+01  .186264514923E-07
     .950031941649E+00  .265062500000E+03  .130897421354E+01 -.856607109696E-08
    -.201794119821E-09  .100000000000E+01  .200400000000E+04  .000000000000E+00
     .200000000000E+01  .000000000000E+00 -.698491930962E-08  .560000000000E+02
     .158400000000E+06
19 18  6  4 12  0  0.0 -.431107357144E-03  .295585778076E-11  .000000000000E+00
     .210000000000E+02 -.450000000000E+01  .414195824347E-08  .184986921393E+01
    -.655651092529E-06  .990724028088E-02  .391528010368E-05  .515371557045E+04
     .129600000000E+06 -.465661287308E-07  .245550604891E+01 -.188127160072E-06
     .980348048597E+00  .317187500000E+03  .119538533801E+01 -.802819154926E-08
    -.935753263594E-10  .100000000000E+01  .200400000000E+04  .000000000000E+00
     .200000000000E+01  .000000000000E+00 -.153668224812E-07  .210000000000E+02
     .129600000000E+06
20 18  6  4 20  0  0.0  .509753357619E-03  .795807864051E-12  .000000000000E+00
     .260000000000E+02 -.511875000000E+02  .511914180423E-08  .113371460150E+01
    -.294297933578E-05  .427111634053E-02  .970065593719E-05  .515484870911E+04
     .158400000000E+06  .409781932831E-07 -.194008417394E+01 -.745058059692E-07
     .928154281191E+00  .176031250000E+03  .196175298090E+01 -.827677333226E-08
     .285726187357E-10  .100000000000E+01  .200400000000E+04  .000000000000E+00
     .200000000000E+01  .000000000000E+00 -.838190317154E-08  .260000000000E+02
     .158400000000E+06
21 18  6  4 20  0  0.0 -.385885126889E-03  .522959453519E-11  .000000000000E+00
     .300000000000E+02 -.733750000000E+02  .517342977983E-08 -.770742180483E+00
    -.373460352421E-05  .243787510553E-01  .606290996075E-05  .515369699287E+04
     .158400000000E+06 -.363215804100E-06 -.292740810497E+01  .124797224998E-06
     .944277137916E+00  .256812500000E+03 -.155427773171E+01 -.890358515577E-08
    -.817891211309E-10  .100000000000E+01  .200400000000E+04  .000000000000E+00
     .200000000000E+01  .000000000000E+00 -.102445483208E-07  .300000000000E+02
     .158400000000E+06
22 18  6  4 20  0  0.0 -.415004324168E-03 -.127329258248E-10  .000000000000E+00
     .640000000000E+02 -.401250000000E+02  .521235997286E-08  .252378013869E+01
    -.208988785744E-05  .737800193019E-02  .863708555698E-05  .515379965782E+04
     .158400000000E+06  .100582838058E-06 -.189019737714E+01 -.260770320892E-07
     .924864800171E+00  .189937500000E+03 -.153305323931E+01 -.815176812529E-08
     .503592405216E-10  .100000000000E+01  .200400000000E+04  .000000000000E+00
     .200000000000E+01  .000000000000E+00 -.176951289177E-07  .640000000000E+02
     .158400000000E+06
23 18  6  4  4  0  0.0 -.216312706470E-03  .454747350886E-12  .000000000000E+00
     .260000000000E+02  .139687500000E+02  .534807991185E-08 -.236164472901E+00
     .743195414543E-06  .125595827121E-01  .588037073612E-05  .515378129959E+04
     .100800000000E+06 -.204890966415E-07 -.797454672548E+00  .141561031342E-06
     .943411899407E+00  .254406250000E+03 -.235859983619E+01 -.857035698977E-08
    -.935753263594E-10  .100000000000E+01  .200400000000E+04  .000000000000E+00
     .200000000000E+01  .000000000000E+00 -.200234353542E-07  .260000000000E+02
     .100800000000E+06
24 18  6  4 20  0  0.0 -.506858341396E-04 -.454747350886E-12  .000000000000E+00
     .590000000000E+02  .127812500000E+02  .498413618071E-08  .130296147979E+01
     .543892383575E-06  .694859412033E-02  .740028917789E-05  .515364380646E+04
     .158400000000E+06 -.521540641785E-07  .221261429455E+00  .113621354103E-06
     .941935415688E+00  .225312500000E+03  .542701717385E+00 -.828891669522E-08
    -.317156067966E-09  .100000000000E+01  .200400000000E+04  .000000000000E+00
     .200000000000E+01  .000000000000E+00  .279396772385E-08  .590000000000E+02
     .158400000000E+06
25 18  6  4 15 59 44.0 -.595744699240E-03 -.591171556152E-11  .000000000000E+00
     .100000000000E+01  .608437500000E+02  .419660337680E-08 -.281585816860E+01
     .309944152832E-05  .749110046308E-02  .793486833572E-05  .515364211845E+04
     .143984000000E+06  .745058059692E-07  .131405743840E+01 -.167638063431E-06
     .974040933309E+00  .231437500000E+03  .864068629732E+00 -.780675375406E-08
     .146434671020E-10  .100000000000E+01  .200400000000E+04  .000000000000E+00
     .200000000000E+01  .000000000000E+00  .605359673500E-08  .100000000000E+01
     .143984000000E+06
26 18  6  4 18  0  0.0 -.126540195197E-03  .125055521494E-10  .000000000000E+00
     .440000000000E+02  .539375000000E+02  .464769359509E-08 -.229718589885E+01
     .268965959549E-05  .279004056938E-02  .799633562565E-05  .515366938972E+04
     .151200000000E+06 -.335276126862E-07  .129188860165E+01 -.726431608200E-07
     .955583850349E+00  .225500000000E+03  .125478584218E+00 -.807069331963E-08
     .285726187357E-10  .100000000000E+01  .200400000000E+04  .000000000000E+00
     .200000000000E+01  .000000000000E+00  .745058059692E-08  .440000000000E+02
     .151200000000E+06
27 18  6  4 20  0  0.0  .367135275155E-03 -.136424205266E-11  .000000000000E+00
     .290000000000E+02  .192187500000E+02  .433982362822E-08 -.307316994010E+01
     .933185219765E-06  .597862305585E-02  .440329313278E-05  .515368529892E+04
     .158400000000E+06 -.141561031342E-06  .235418895678E+01 -.651925802231E-07
     .977485704546E+00  .304375000000E+03  .431099755252E+00 -.800176187693E-08
     .119290683221E-09  .100000000000E+01  .200400000000E+04  .000000000000E+00
     .200000000000E+01  .000000000000E+00  .139698386192E-08  .290000000000E+02
     .158400000000E+06
28 18  6  4 20  0  0.0  .720992218703E-03  .318323145621E-11  .000000000000E+00
     .480000000000E+02  .638125000000E+02  .378551482474E-08 -.218507878087E+01
     .351853668690E-05  .194776760181E-01  .726990401745E-05  .515368523979E+04
     .158400000000E+06  .251457095146E-06  .139698390062E+01  .221654772758E-06
     .985673017740E+00  .247000000000E+03 -.151931772445E+01 -.744173854971E-08
     .149649090628E-09  .100000000000E+01  .200400000000E+04  .000000000000E+00
     .200000000000E+01  .000000000000E+00 -.111758708954E-07  .480000000000E+02
     .158400000000E+06
29 18  6  4 18  0  0.0  .438235234469E-03 -.659383658785E-11  .000000000000E+00
     .250000000000E+02  .131875000000E+02  .424196240905E-08  .310576087735E+01
     .741332769394E-06  .803275848739E-03  .382028520107E-05  .515368821907E+04
     .151200000000E+06  .279396772385E-07  .241897040280E+01 -.137835741043E-06
     .984084063417E+00  .314343750000E+03  .119444411554E+01 -.813569602725E-08
     .414302971667E-10  .100000000000E+01  .200400000000E+04  .000000000000E+00
     .200000000000E+01  .000000000000E+00 -.102445483208E-07  .250000000000E+02
     .151200000000E+06
30 18  6  4  8  0  0.0  .665164552629E-04 -.443378667114E-11  .000000000000E+00
     .220000000000E+02  .165312500000E+02  .492199073496E-08  .414313209168E+00
     .679865479469E-06  .344718561973E-02  .762008130550E-05  .515373322678E+04
     .115200000000E+06 -.353902578354E-07  .314917721381E+00  .111758708954E-07
     .944468895755E+00  .219375000000E+03 -.307130802428E+01 -.822498546080E-08
    -.500377985609E-09  .100000000000E+01  .200400000000E+04  .000000000000E+00
     .200000000000E+01  .000000000000E+00  .372529029846E-08  .220000000000E+02
     .115200000000E+06
31 18  6  4 16  0  0.0  .116920098662E-03 -.261479726760E-11  .000000000000E+00
     .940000000000E+02  .144375000000E+02  .459983445871E-08 -.193642230127E+01
     .519677996635E-06  .875774293672E-02  .813044607639E-05  .515367104912E+04
     .144000000000E+06 -.968575477600E-07  .293752475695E+00 -.206753611565E-06
     .963515207007E+00  .228031250000E+03 -.128096765779E+00 -.800640492747E-08
    -.167506977338E-09  .100000000000E+01  .200400000000E+04  .000000000000E+00
     .200000000000E+01  .000000000000E+00 -.135041773319E-07  .940000000000E+02
     .144000000000E+06
32 18  6  4 20  0  0.0 -.499433372170E-03  .602540239925E-11  .000000000000E+00
     .770000000000E+02  .142500000000E+02  .459983445871E-08 -.236533399043E+01
     .823289155960E-06  .217447651085E-02  .721402466297E-05  .515366569328E+04
     .158400000000E+06 -.447034835815E-07 -.791226063296E+00 -.186264514923E-07
     .956978763218E+00  .238843750000E+03 -.255279980618E+01 -.795926010656E-08
     .176078762959E-09  .100000000000E+01  .200400000000E+04  .000000000000E+00
     .200000000000E+01  .000000000000E+00  .465661287308E-09  .770000000000E+02
     .158400000000E+06
